WORLDVIEW-1 (WV-1)      
1 32060U 07041A   26191.26676309  .00004208  00000+0  17397-3 0  9994
2 32060  97.3891 310.6852 0001105 235.7012 124.4121 15.24524238 46395
WORLDVIEW-2 (WV-2)      
1 35946U 09055A   26191.26631938  .00000054  00000+0  32443-4 0  9991
2 35946  98.4758 264.4015 0005105 141.7437 218.4113 14.37906133878965
WORLDVIEW-3 (WV-3)      
1 40115U 14048A   26191.27852999  .00000473  00000+0  61586-4 0  9991
2 40115  97.8558 265.7920 0000912 162.2723 197.8523 14.85059620645337
